[{"OBJECT_NAME":"ONEWEB-0273","OBJECT_ID":"2021-060AA","EPOCH":"2026-03-26T09:05:02.185728","MEAN_MOTION":13.16594639,"ECCENTRICITY":0.0001882,"INCLINATION":87.903,"RA_OF_ASC_NODE":245.2437,"ARG_OF_PERICENTER":98.3744,"MEAN_ANOMALY":261.7601,"EPHEMERIS_TYPE":0,"CLASSIFICATION_TYPE":"U","NORAD_CAT_ID":48991,"ELEMENT_SET_NO":999,"REV_AT_EPOCH":22869,"BSTAR":3.2166e-5,"MEAN_MOTION_DOT":2.5e-7,"MEAN_MOTION_DDOT":0},{"OBJECT_NAME":"ONEWEB-0274","OBJECT_ID":"2021-060AB","EPOCH":"2026-03-26T09:41:30.930144","MEAN_MOTION":13.16594378,"ECCENTRICITY":0.0001677,"INCLINATION":87.9016,"RA_OF_ASC_NODE":245.25,"ARG_OF_PERICENTER":110.3041,"MEAN_ANOMALY":249.827,"EPHEMERIS_TYPE":0,"CLASSIFICATION_TYPE":"U","NORAD_CAT_ID":48992,"ELEMENT_SET_NO":999,"REV_AT_EPOCH":22873,"BSTAR":1.0921e-5,"MEAN_MOTION_DOT":1.7e-7,"MEAN_MOTION_DDOT":0},{"OBJECT_NAME":"ONEWEB-0275","OBJECT_ID":"2021-060AC","EPOCH":"2026-03-26T09:25:33.194784","MEAN_MOTION":13.16595323,"ECCENTRICITY":0.0001806,"INCLINATION":87.9028,"RA_OF_ASC_NODE":245.233,"ARG_OF_PERICENTER":101.2309,"MEAN_ANOMALY":258.9025,"EPHEMERIS_TYPE":0,"CLASSIFICATION_TYPE":"U","NORAD_CAT_ID":48993,"ELEMENT_SET_NO":999,"REV_AT_EPOCH":22866,"BSTAR":-0.00048091,"MEAN_MOTION_DOT":-1.71e-6,"MEAN_MOTION_DDOT":0},{"OBJECT_NAME":"ONEWEB-0276","OBJECT_ID":"2021-060AD","EPOCH":"2026-03-26T10:13:25.895424","MEAN_MOTION":13.16594782,"ECCENTRICITY":0.0001838,"INCLINATION":87.9029,"RA_OF_ASC_NODE":245.227,"ARG_OF_PERICENTER":94.122,"MEAN_ANOMALY":266.0121,"EPHEMERIS_TYPE":0,"CLASSIFICATION_TYPE":"U","NORAD_CAT_ID":48994,"ELEMENT_SET_NO":999,"REV_AT_EPOCH":22868,"BSTAR":0.00029186,"MEAN_MOTION_DOT":1.24e-6,"MEAN_MOTION_DDOT":0},{"OBJECT_NAME":"ONEWEB-0277","OBJECT_ID":"2021-060AE","EPOCH":"2026-03-26T10:31:39.049824","MEAN_MOTION":13.16592744,"ECCENTRICITY":0.0001874,"INCLINATION":87.9019,"RA_OF_ASC_NODE":245.2381,"ARG_OF_PERICENTER":99.2098,"MEAN_ANOMALY":260.9245,"EPHEMERIS_TYPE":0,"CLASSIFICATION_TYPE":"U","NORAD_CAT_ID":48995,"ELEMENT_SET_NO":999,"REV_AT_EPOCH":22867,"BSTAR":0.00027961,"MEAN_MOTION_DOT":1.2e-6,"MEAN_MOTION_DDOT":0},{"OBJECT_NAME":"ONEWEB-0278","OBJECT_ID":"2021-060AF","EPOCH":"2026-03-26T10:17:58.744032","MEAN_MOTION":13.16595401,"ECCENTRICITY":0.000162,"INCLINATION":87.9031,"RA_OF_ASC_NODE":245.2235,"ARG_OF_PERICENTER":91.3915,"MEAN_ANOMALY":268.7402,"EPHEMERIS_TYPE":0,"CLASSIFICATION_TYPE":"U","NORAD_CAT_ID":48996,"ELEMENT_SET_NO":999,"REV_AT_EPOCH":22880,"BSTAR":0.00046172,"MEAN_MOTION_DOT":1.89e-6,"MEAN_MOTION_DDOT":0},{"OBJECT_NAME":"ONEWEB-0279","OBJECT_ID":"2021-060AG","EPOCH":"2026-03-26T10:29:23.731008","MEAN_MOTION":13.16594998,"ECCENTRICITY":0.0001944,"INCLINATION":87.9032,"RA_OF_ASC_NODE":245.221,"ARG_OF_PERICENTER":104.2251,"MEAN_ANOMALY":255.9096,"EPHEMERIS_TYPE":0,"CLASSIFICATION_TYPE":"U","NORAD_CAT_ID":48997,"ELEMENT_SET_NO":999,"REV_AT_EPOCH":22873,"BSTAR":0.00029448,"MEAN_MOTION_DOT":1.25e-6,"MEAN_MOTION_DDOT":0},{"OBJECT_NAME":"ONEWEB-0280","OBJECT_ID":"2021-060AH","EPOCH":"2026-03-26T09:01:36.533856","MEAN_MOTION":13.1659582,"ECCENTRICITY":0.0001954,"INCLINATION":87.9031,"RA_OF_ASC_NODE":245.2379,"ARG_OF_PERICENTER":89.7009,"MEAN_ANOMALY":270.4345,"EPHEMERIS_TYPE":0,"CLASSIFICATION_TYPE":"U","NORAD_CAT_ID":48998,"ELEMENT_SET_NO":999,"REV_AT_EPOCH":22866,"BSTAR":0.00021323,"MEAN_MOTION_DOT":9.4e-7,"MEAN_MOTION_DDOT":0},{"OBJECT_NAME":"ONEWEB-0281","OBJECT_ID":"2021-060AJ","EPOCH":"2026-03-26T09:09:35.797248","MEAN_MOTION":13.16594595,"ECCENTRICITY":0.000164,"INCLINATION":87.9028,"RA_OF_ASC_NODE":245.2309,"ARG_OF_PERICENTER":102.0108,"MEAN_ANOMALY":258.1207,"EPHEMERIS_TYPE":0,"CLASSIFICATION_TYPE":"U","NORAD_CAT_ID":48999,"ELEMENT_SET_NO":999,"REV_AT_EPOCH":22873,"BSTAR":-1.9824e-5,"MEAN_MOTION_DOT":5.0e-8,"MEAN_MOTION_DDOT":0},{"OBJECT_NAME":"ONEWEB-0282","OBJECT_ID":"2021-060AK","EPOCH":"2026-03-26T09:52:54.539904","MEAN_MOTION":13.16594757,"ECCENTRICITY":0.0001883,"INCLINATION":87.9026,"RA_OF_ASC_NODE":245.2354,"ARG_OF_PERICENTER":97.3375,"MEAN_ANOMALY":262.797,"EPHEMERIS_TYPE":0,"CLASSIFICATION_TYPE":"U","NORAD_CAT_ID":49000,"ELEMENT_SET_NO":999,"REV_AT_EPOCH":22871,"BSTAR":2.7625e-5,"MEAN_MOTION_DOT":2.3e-7,"MEAN_MOTION_DDOT":0},{"OBJECT_NAME":"ONEWEB-0283","OBJECT_ID":"2021-060AL","EPOCH":"2026-03-26T09:36:57.017952","MEAN_MOTION":13.16594752,"ECCENTRICITY":0.0001882,"INCLINATION":87.9025,"RA_OF_ASC_NODE":245.2374,"ARG_OF_PERICENTER":101.7295,"MEAN_ANOMALY":258.4048,"EPHEMERIS_TYPE":0,"CLASSIFICATION_TYPE":"U","NORAD_CAT_ID":49001,"ELEMENT_SET_NO":999,"REV_AT_EPOCH":22872,"BSTAR":-6.9872e-5,"MEAN_MOTION_DOT":-1.4e-7,"MEAN_MOTION_DDOT":0},{"OBJECT_NAME":"ONEWEB-0284","OBJECT_ID":"2021-060AM","EPOCH":"2026-03-26T09:27:50.404896","MEAN_MOTION":13.16594619,"ECCENTRICITY":0.0001829,"INCLINATION":87.9028,"RA_OF_ASC_NODE":245.2303,"ARG_OF_PERICENTER":87.638,"MEAN_ANOMALY":272.4961,"EPHEMERIS_TYPE":0,"CLASSIFICATION_TYPE":"U","NORAD_CAT_ID":49002,"ELEMENT_SET_NO":999,"REV_AT_EPOCH":22870,"BSTAR":-9.2096e-5,"MEAN_MOTION_DOT":-2.2e-7,"MEAN_MOTION_DDOT":0},{"OBJECT_NAME":"ONEWEB-0285","OBJECT_ID":"2021-075A","EPOCH":"2026-03-26T11:53:23.411040","MEAN_MOTION":13.12443387,"ECCENTRICITY":0.0001869,"INCLINATION":87.9021,"RA_OF_ASC_NODE":7.0778,"ARG_OF_PERICENTER":78.2005,"MEAN_ANOMALY":281.9333,"EPHEMERIS_TYPE":0,"CLASSIFICATION_TYPE":"U","NORAD_CAT_ID":49075,"ELEMENT_SET_NO":999,"REV_AT_EPOCH":22436,"BSTAR":-0.0011333,"MEAN_MOTION_DOT":-3.95e-6,"MEAN_MOTION_DDOT":0},{"OBJECT_NAME":"ONEWEB-0286","OBJECT_ID":"2021-075B","EPOCH":"2026-03-26T07:48:00.999648","MEAN_MOTION":13.12443595,"ECCENTRICITY":0.0001573,"INCLINATION":87.9004,"RA_OF_ASC_NODE":7.1366,"ARG_OF_PERICENTER":76.0352,"MEAN_ANOMALY":284.0951,"EPHEMERIS_TYPE":0,"CLASSIFICATION_TYPE":"U","NORAD_CAT_ID":49076,"ELEMENT_SET_NO":999,"REV_AT_EPOCH":22369,"BSTAR":0.00024914,"MEAN_MOTION_DOT":1.02e-6,"MEAN_MOTION_DDOT":0},{"OBJECT_NAME":"ONEWEB-0287","OBJECT_ID":"2021-075C","EPOCH":"2026-03-26T07:41:13.939872","MEAN_MOTION":13.17649398,"ECCENTRICITY":0.0001516,"INCLINATION":87.9174,"RA_OF_ASC_NODE":22.3216,"ARG_OF_PERICENTER":69.3626,"MEAN_ANOMALY":290.7668,"EPHEMERIS_TYPE":0,"CLASSIFICATION_TYPE":"U","NORAD_CAT_ID":49077,"ELEMENT_SET_NO":999,"REV_AT_EPOCH":22271,"BSTAR":5.1516e-5,"MEAN_MOTION_DOT":3.3e-7,"MEAN_MOTION_DDOT":0},{"OBJECT_NAME":"ONEWEB-0288","OBJECT_ID":"2021-075D","EPOCH":"2026-03-26T07:14:04.991424","MEAN_MOTION":13.12444203,"ECCENTRICITY":0.0001809,"INCLINATION":87.9014,"RA_OF_ASC_NODE":7.1105,"ARG_OF_PERICENTER":74.7647,"MEAN_ANOMALY":285.3682,"EPHEMERIS_TYPE":0,"CLASSIFICATION_TYPE":"U","NORAD_CAT_ID":49078,"ELEMENT_SET_NO":999,"REV_AT_EPOCH":22431,"BSTAR":0.001179,"MEAN_MOTION_DOT":4.37e-6,"MEAN_MOTION_DDOT":0},{"OBJECT_NAME":"ONEWEB-0289","OBJECT_ID":"2021-075E","EPOCH":"2026-03-26T08:36:55.147104","MEAN_MOTION":13.1764927,"ECCENTRICITY":0.0002234,"INCLINATION":87.9177,"RA_OF_ASC_NODE":22.3269,"ARG_OF_PERICENTER":73.0321,"MEAN_ANOMALY":287.1055,"EPHEMERIS_TYPE":0,"CLASSIFICATION_TYPE":"U","NORAD_CAT_ID":49079,"ELEMENT_SET_NO":999,"REV_AT_EPOCH":22329,"BSTAR":7.0065e-5,"MEAN_MOTION_DOT":4.0e-7,"MEAN_MOTION_DDOT":0}]
