ONEWEB-0273             
1 48991U 21060AA  26085.37849752  .00000025  00000+0  32166-4 0  9994
2 48991  87.9030 245.2437 0001882  98.3744 261.7601 13.16594639228698
ONEWEB-0274             
1 48992U 21060AB  26085.40383021  .00000017  00000+0  10921-4 0  9997
2 48992  87.9016 245.2500 0001677 110.3041 249.8270 13.16594378228735
ONEWEB-0275             
1 48993U 21060AC  26085.39274531 -.00000171  00000+0 -48091-3 0  9992
2 48993  87.9028 245.2330 0001806 101.2309 258.9025 13.16595323228662
ONEWEB-0276             
1 48994U 21060AD  26085.42599416  .00000124  00000+0  29186-3 0  9999
2 48994  87.9029 245.2270 0001838  94.1220 266.0121 13.16594782228681
ONEWEB-0277             
1 48995U 21060AE  26085.43864641  .00000120  00000+0  27961-3 0  9991
2 48995  87.9019 245.2381 0001874  99.2098 260.9245 13.16592744228678
ONEWEB-0278             
1 48996U 21060AF  26085.42915213  .00000189  00000+0  46172-3 0  9993
2 48996  87.9031 245.2235 0001620  91.3915 268.7402 13.16595401228800
ONEWEB-0279             
1 48997U 21060AG  26085.43708022  .00000125  00000+0  29448-3 0  9990
2 48997  87.9032 245.2210 0001944 104.2251 255.9096 13.16594998228730
ONEWEB-0280             
1 48998U 21060AH  26085.37611729  .00000094  00000+0  21323-3 0  9990
2 48998  87.9031 245.2379 0001954  89.7009 270.4345 13.16595820228661
ONEWEB-0281             
1 48999U 21060AJ  26085.38166432  .00000005  00000+0 -19824-4 0  9995
2 48999  87.9028 245.2309 0001640 102.0108 258.1207 13.16594595228738
ONEWEB-0282             
1 49000U 21060AK  26085.41174236  .00000023  00000+0  27625-4 0  9991
2 49000  87.9026 245.2354 0001883  97.3375 262.7970 13.16594757228717
ONEWEB-0283             
1 49001U 21060AL  26085.40065993 -.00000014  00000+0 -69872-4 0  9992
2 49001  87.9025 245.2374 0001882 101.7295 258.4048 13.16594752228723
ONEWEB-0284             
1 49002U 21060AM  26085.39433339 -.00000022  00000+0 -92096-4 0  9997
2 49002  87.9028 245.2303 0001829  87.6380 272.4961 13.16594619228707
ONEWEB-0285             
1 49075U 21075A   26085.49540985 -.00000395  00000+0 -11333-2 0  9996
2 49075  87.9021   7.0778 0001869  78.2005 281.9333 13.12443387224361
ONEWEB-0286             
1 49076U 21075B   26085.32501157  .00000102  00000+0  24914-3 0  9991
2 49076  87.9004   7.1366 0001573  76.0352 284.0951 13.12443595223696
ONEWEB-0287             
1 49077U 21075C   26085.32030023  .00000033  00000+0  51516-4 0  9993
2 49077  87.9174  22.3216 0001516  69.3626 290.7668 13.17649398222719
ONEWEB-0288             
1 49078U 21075D   26085.30144666  .00000437  00000+0  11790-2 0  9997
2 49078  87.9014   7.1105 0001809  74.7647 285.3682 13.12444203224316
ONEWEB-0289             
1 49079U 21075E   26085.35897161  .00000040  00000+0  70065-4 0  9990
2 49079  87.9177  22.3269 0002234  73.0321 287.1055 13.17649270223297
